start=new Date('2022-07-06T00:00:00.000Z').valueOf();
sats=[{"COUNTRY_CODE":"US","APOAPSIS":"548.618","OBJECT_NAME":"STARLINK-2312","SITE":"AFETR","LAUNCH_DATE":"2021-03-24","REF_FRAME":"TEME","ARG_OF_PERICENTER":"57.6891","CLASSIFICATION_TYPE":"U","MEAN_MOTION_DDOT":"0.0000000000000","MEAN_MOTION":"15.06411942","EPHEMERIS_TYPE":"0","PERIAPSIS":"545.736","RCS_SIZE":"LARGE","OBJECT_TYPE":"PAYLOAD","ECCENTRICITY":"0.00020810","OBJECT_ID":"2021-024D","MEAN_ANOMALY":"302.4299","RA_OF_ASC_NODE":"162.2703","MEAN_ELEMENT_THEORY":"SGP4","CENTER_NAME":"EARTH","NORAD_CAT_ID":"47980","FILE":"3508171","BSTAR":"0.00009282300000","EPOCH":"2022-07-05T08:12:11.786112","MEAN_MOTION_DOT":"0.00001102","SEMIMAJOR_AXIS":"6925.312","GP_ID":"207477429","TLE_LINE1":"1 47980U 21024D   22186.34180308  .00001102  00000-0  92823-4 0  9995","TIME_SYSTEM":"UTC","REV_AT_EPOCH":"7327","ELEMENT_SET_NO":"999","INCLINATION":"53.0548","PERIOD":"95.591","TLE_LINE2":"2 47980  53.0548 162.2703 0002081  57.6891 302.4299 15.06411942 73274","DECAY_DATE":null},{"BSTAR":"0.00000923290000","EPOCH":"2022-07-05T10:32:09.861792","MEAN_MOTION_DOT":"-0.00000144","SEMIMAJOR_AXIS":"6925.340","NORAD_CAT_ID":"47981","FILE":"3508171","RA_OF_ASC_NODE":"246.7008","MEAN_ELEMENT_THEORY":"SGP4","CENTER_NAME":"EARTH","PERIOD":"95.592","TLE_LINE2":"2 47981  53.0537 246.7008 0001321  75.3878 284.7257 15.06402847 72108","DECAY_DATE":null,"REV_AT_EPOCH":"7210","ELEMENT_SET_NO":"999","INCLINATION":"53.0537","TIME_SYSTEM":"UTC","TLE_LINE1":"1 47981U 21024E   22186.43900303 -.00000144  00000-0  92329-5 0  9999","GP_ID":"207475682","CLASSIFICATION_TYPE":"U","MEAN_MOTION_DDOT":"0.0000000000000","MEAN_MOTION":"15.06402847","REF_FRAME":"TEME","ARG_OF_PERICENTER":"75.3878","LAUNCH_DATE":"2021-03-24","COUNTRY_CODE":"US","OBJECT_NAME":"STARLINK-2303","APOAPSIS":"548.120","SITE":"AFETR","ECCENTRICITY":"0.00013210","OBJECT_ID":"2021-024E","MEAN_ANOMALY":"284.7257","RCS_SIZE":"LARGE","OBJECT_TYPE":"PAYLOAD","EPHEMERIS_TYPE":"0","PERIAPSIS":"546.290"},{"REV_AT_EPOCH":"7301","ELEMENT_SET_NO":"999","INCLINATION":"53.0540","PERIOD":"95.592","DECAY_DATE":null,"TLE_LINE2":"2 47982  53.0540 177.0838 0002403  49.6173 310.5026 15.06406422 73010","GP_ID":"207476432","TIME_SYSTEM":"UTC","TLE_LINE1":"1 47982U 21024F   22186.35331226  .00000884  00000-0  78280-4 0  9992","EPOCH":"2022-07-05T08:28:46.179264","BSTAR":"0.00007828000000","MEAN_MOTION_DOT":"0.00000884","SEMIMAJOR_AXIS":"6925.329","MEAN_ELEMENT_THEORY":"SGP4","RA_OF_ASC_NODE":"177.0838","CENTER_NAME":"EARTH","NORAD_CAT_ID":"47982","FILE":"3508171","RCS_SIZE":"LARGE","OBJECT_TYPE":"PAYLOAD","ECCENTRICITY":"0.00024030","OBJECT_ID":"2021-024F","MEAN_ANOMALY":"310.5026","EPHEMERIS_TYPE":"0","PERIAPSIS":"545.530","ARG_OF_PERICENTER":"49.6173","REF_FRAME":"TEME","CLASSIFICATION_TYPE":"U","MEAN_MOTION_DDOT":"0.0000000000000","MEAN_MOTION":"15.06406422","COUNTRY_CODE":"US","APOAPSIS":"548.858","OBJECT_NAME":"STARLINK-2317","SITE":"AFETR","LAUNCH_DATE":"2021-03-24"},{"CENTER_NAME":"EARTH","RA_OF_ASC_NODE":"180.1483","MEAN_ELEMENT_THEORY":"SGP4","FILE":"3508215","NORAD_CAT_ID":"47985","SEMIMAJOR_AXIS":"6925.362","MEAN_MOTION_DOT":"0.00001013","BSTAR":"0.00008691500000","EPOCH":"2022-07-05T19:44:53.684448","GP_ID":"207481470","TIME_SYSTEM":"UTC","TLE_LINE1":"1 47985U 21024J   22186.82284357  .00001013  00000-0  86915-4 0  9998","INCLINATION":"53.0537","ELEMENT_SET_NO":"999","REV_AT_EPOCH":"7253","DECAY_DATE":null,"TLE_LINE2":"2 47985  53.0537 180.1483 0001433  69.0945 291.0197 15.06395504 72531","PERIOD":"95.592","SITE":"AFETR","OBJECT_NAME":"STARLINK-2308","APOAPSIS":"548.220","COUNTRY_CODE":"US","LAUNCH_DATE":"2021-03-24","ARG_OF_PERICENTER":"69.0945","REF_FRAME":"TEME","MEAN_MOTION":"15.06395504","MEAN_MOTION_DDOT":"0.0000000000000","CLASSIFICATION_TYPE":"U","PERIAPSIS":"546.235","EPHEMERIS_TYPE":"0","OBJECT_TYPE":"PAYLOAD","RCS_SIZE":"LARGE","MEAN_ANOMALY":"291.0197","ECCENTRICITY":"0.00014330","OBJECT_ID":"2021-024J"},{"PERIAPSIS":"308.857","EPHEMERIS_TYPE":"0","OBJECT_ID":"2021-024M","ECCENTRICITY":"0.00011440","MEAN_ANOMALY":"80.4018","RCS_SIZE":"LARGE","OBJECT_TYPE":"PAYLOAD","LAUNCH_DATE":"2021-03-24","COUNTRY_CODE":"US","SITE":"AFETR","OBJECT_NAME":"STARLINK-2306","APOAPSIS":"310.387","MEAN_MOTION_DDOT":"0.0000000000000","CLASSIFICATION_TYPE":"U","MEAN_MOTION":"15.87384159","REF_FRAME":"TEME","ARG_OF_PERICENTER":"99.1632","TLE_LINE1":"1 47988U 21024M   22186.91667824 -.00087545  00000-0 -32536-3 0  9990","TIME_SYSTEM":"UTC","GP_ID":"207481257","TLE_LINE2":"2 47988  53.0321 139.5602 0001144  99.1632  80.4018 15.87384159 73112","DECAY_DATE":null,"PERIOD":"90.715","ELEMENT_SET_NO":"999","REV_AT_EPOCH":"7311","INCLINATION":"53.0321","NORAD_CAT_ID":"47988","FILE":"3508222","RA_OF_ASC_NODE":"139.5602","CENTER_NAME":"EARTH","MEAN_ELEMENT_THEORY":"SGP4","MEAN_MOTION_DOT":"-0.00087545","BSTAR":"-0.00032536000000","EPOCH":"2022-07-05T22:00:00.999936","SEMIMAJOR_AXIS":"6687.757"},{"RCS_SIZE":"LARGE","OBJECT_TYPE":"PAYLOAD","ECCENTRICITY":"0.00015940","OBJECT_ID":"2021-024N","MEAN_ANOMALY":"282.5905","EPHEMERIS_TYPE":"0","PERIAPSIS":"546.111","ARG_OF_PERICENTER":"77.5262","REF_FRAME":"TEME","CLASSIFICATION_TYPE":"U","MEAN_MOTION_DDOT":"0.0000000000000","MEAN_MOTION":"15.06399433","COUNTRY_CODE":"US","APOAPSIS":"548.319","OBJECT_NAME":"STARLINK-2305","SITE":"AFETR","LAUNCH_DATE":"2021-03-24","REV_AT_EPOCH":"7285","ELEMENT_SET_NO":"999","INCLINATION":"53.0552","PERIOD":"95.592","TLE_LINE2":"2 47989  53.0552 155.9546 0001594  77.5262 282.5905 15.06399433 72858","DECAY_DATE":null,"GP_ID":"207481253","TLE_LINE1":"1 47989U 21024N   22186.60949313  .00000105  00000-0  25920-4 0  9998","TIME_SYSTEM":"UTC","BSTAR":"0.00002592000000","EPOCH":"2022-07-05T14:37:40.206432","MEAN_MOTION_DOT":"0.00000105","SEMIMAJOR_AXIS":"6925.350","RA_OF_ASC_NODE":"155.9546","MEAN_ELEMENT_THEORY":"SGP4","CENTER_NAME":"EARTH","NORAD_CAT_ID":"47989","FILE":"3508222"},{"REF_FRAME":"TEME","ARG_OF_PERICENTER":"58.7732","MEAN_MOTION":"15.06417023","MEAN_MOTION_DDOT":"0.0000000000000","CLASSIFICATION_TYPE":"U","SITE":"AFETR","APOAPSIS":"548.857","OBJECT_NAME":"STARLINK-2307","COUNTRY_CODE":"US","LAUNCH_DATE":"2021-03-24","OBJECT_TYPE":"PAYLOAD","RCS_SIZE":"LARGE","MEAN_ANOMALY":"301.3497","ECCENTRICITY":"0.00024490","OBJECT_ID":"2021-024P","PERIAPSIS":"545.465","EPHEMERIS_TYPE":"0","SEMIMAJOR_AXIS":"6925.296","MEAN_MOTION_DOT":"0.00003051","BSTAR":"0.00022352000000","EPOCH":"2022-07-05T10:17:35.457504","RA_OF_ASC_NODE":"156.7399","MEAN_ELEMENT_THEORY":"SGP4","CENTER_NAME":"EARTH","FILE":"3508171","NORAD_CAT_ID":"47990","INCLINATION":"53.0530","ELEMENT_SET_NO":"999","REV_AT_EPOCH":"7329","TLE_LINE2":"2 47990  53.0530 156.7399 0002449  58.7732 301.3497 15.06417023 73295","DECAY_DATE":null,"PERIOD":"95.591","GP_ID":"207475932","TIME_SYSTEM":"UTC","TLE_LINE1":"1 47990U 21024P   22186.42888261  .00003051  00000-0  22352-3 0  9992"},{"TIME_SYSTEM":"UTC","TLE_LINE1":"1 47991U 21024Q   22186.37405485 -.00001164  00000-0 -59296-4 0  9993","GP_ID":"207481256","PERIOD":"95.593","TLE_LINE2":"2 47991  53.0551 172.0151 0001482  74.2975 285.8178 15.06393486 72606","DECAY_DATE":null,"REV_AT_EPOCH":"7260","ELEMENT_SET_NO":"999","INCLINATION":"53.0551","NORAD_CAT_ID":"47991","FILE":"3508222","RA_OF_ASC_NODE":"172.0151","MEAN_ELEMENT_THEORY":"SGP4","CENTER_NAME":"EARTH","BSTAR":"-0.00005929600000","EPOCH":"2022-07-05T08:58:38.339040","MEAN_MOTION_DOT":"-0.00001164","SEMIMAJOR_AXIS":"6925.369","EPHEMERIS_TYPE":"0","PERIAPSIS":"546.207","OBJECT_ID":"2021-024Q","ECCENTRICITY":"0.00014820","MEAN_ANOMALY":"285.8178","RCS_SIZE":"LARGE","OBJECT_TYPE":"PAYLOAD","LAUNCH_DATE":"2021-03-24","COUNTRY_CODE":"US","APOAPSIS":"548.260","OBJECT_NAME":"STARLINK-2279","SITE":"AFETR","CLASSIFICATION_TYPE":"U","MEAN_MOTION_DDOT":"0.0000000000000","MEAN_MOTION":"15.06393486","ARG_OF_PERICENTER":"74.2975","REF_FRAME":"TEME"},{"PERIAPSIS":"546.000","EPHEMERIS_TYPE":"0","OBJECT_TYPE":"PAYLOAD","RCS_SIZE":"LARGE","MEAN_ANOMALY":"300.2241","ECCENTRICITY":"0.00016970","OBJECT_ID":"2021-024R","SITE":"AFETR","OBJECT_NAME":"STARLINK-2229","APOAPSIS":"548.351","COUNTRY_CODE":"US","LAUNCH_DATE":"2021-03-24","ARG_OF_PERICENTER":"59.8916","REF_FRAME":"TEME","MEAN_MOTION":"15.06412478","MEAN_MOTION_DDOT":"0.0000000000000","CLASSIFICATION_TYPE":"U","GP_ID":"207477430","TLE_LINE1":"1 47992U 21024R   22186.32844429 -.00000635  00000-0 -23691-4 0  9996","TIME_SYSTEM":"UTC","INCLINATION":"53.0541","ELEMENT_SET_NO":"999","REV_AT_EPOCH":"7315","TLE_LINE2":"2 47992  53.0541 167.2900 0001697  59.8916 300.2241 15.06412478 73153","DECAY_DATE":null,"PERIOD":"95.591","MEAN_ELEMENT_THEORY":"SGP4","RA_OF_ASC_NODE":"167.2900","CENTER_NAME":"EARTH","FILE":"3508171","NORAD_CAT_ID":"47992","SEMIMAJOR_AXIS":"6925.310","MEAN_MOTION_DOT":"-0.00000635","BSTAR":"-0.00002369100000","EPOCH":"2022-07-05T07:52:57.586656"},{"PERIAPSIS":"546.159","EPHEMERIS_TYPE":"0","ECCENTRICITY":"0.00015400","OBJECT_ID":"2021-024S","MEAN_ANOMALY":"297.9113","RCS_SIZE":"LARGE","OBJECT_TYPE":"PAYLOAD","LAUNCH_DATE":"2021-03-24","COUNTRY_CODE":"US","SITE":"AFETR","OBJECT_NAME":"STARLINK-2273","APOAPSIS":"548.292","MEAN_MOTION_DDOT":"0.0000000000000","CLASSIFICATION_TYPE":"U","MEAN_MOTION":"15.06396212","REF_FRAME":"TEME","ARG_OF_PERICENTER":"62.2032","TIME_SYSTEM":"UTC","TLE_LINE1":"1 47993U 21024S   22186.46849345  .00000768  00000-0  70447-4 0  9990","GP_ID":"207475683","TLE_LINE2":"2 47993  53.0535 206.5869 0001540  62.2032 297.9113 15.06396212 72664","DECAY_DATE":null,"PERIOD":"95.592","ELEMENT_SET_NO":"999","REV_AT_EPOCH":"7266","INCLINATION":"53.0535","NORAD_CAT_ID":"47993","FILE":"3508171","RA_OF_ASC_NODE":"206.5869","CENTER_NAME":"EARTH","MEAN_ELEMENT_THEORY":"SGP4","MEAN_MOTION_DOT":"0.00000768","BSTAR":"0.00007044700000","EPOCH":"2022-07-05T11:14:37.834080","SEMIMAJOR_AXIS":"6925.360"}];
